STARLINK-1633           
1 46171U 20057BG  25341.27104539  .00082332  00000+0  20912-2 0  9992
2 46171  53.0524 341.5195 0010762  27.1405 333.0159 15.38900168293811
STARLINK-1635           
1 46172U 20057BH  25341.25198507  .00038308  00000+0  98448-3 0  9993
2 46172  53.0539 341.2530 0010027  25.6318 334.5180 15.38893889293819
STARLINK-1640           
1 46173U 20057BJ  25341.08007032  .00000814  00000+0  73531-4 0  9995
2 46173  53.0554  12.3573 0000724  66.4720 293.6345 15.06390201292107
STARLINK-1641           
1 46174U 20057BK  25341.33336806  .00150583  00000+0  44358-2 0  9990
2 46174  53.0536   3.9540 0002625  47.6492 340.8218 15.33991437  5583
STARLINK-1734           
1 46325U 20062A   25341.33336806  .00673790  19290-3  20310-2 0  9991
2 46325  53.0161 313.7061 0003831  78.3377 323.9778 15.91651011  5957
STARLINK-1654           
1 46326U 20062B   25340.65806622  .00047150  00000+0  10508-2 0  9992
2 46326  53.0525  64.2172 0006253 337.6855  22.3877 15.43132469290433
STARLINK-1686           
1 46328U 20062D   25341.19107039  .00041232  00000+0  96903-3 0  9999
2 46328  53.0523  41.5939 0007269 341.1544  18.9190 15.41597585290795
STARLINK-1695           
1 46329U 20062E   25341.19800985  .00002736  00000+0  20254-3 0  9992
2 46329  53.0543  51.8319 0001743  70.1865 289.9312 15.06392184290649
STARLINK-1710           
1 46330U 20062F   25340.83108241  .00076771  00000+0  11638-2 0  9995
2 46330  53.0435  20.7847 0002772 302.4476  57.6266 15.53970828291068
STARLINK-1719           
1 46331U 20062G   25341.28495104  .00048555  00000+0  12990-2 0  9994
2 46331  53.0528  60.8748 0006668 307.9889  52.0511 15.37575327290533
STARLINK-1723           
1 46333U 20062J   25341.26649503  .00058368  00000+0  11374-2 0  9996
2 46333  53.0512  61.1549 0007684 340.1403  19.9304 15.46973439290528
STARLINK-1727           
1 46335U 20062L   25340.94621805  .00045289  00000+0  10534-2 0  9992
2 46335  53.0525  64.5346 0007377 342.4187  17.6561 15.41864694290458
STARLINK-1738           
1 46336U 20062M   25341.11691685  .00075652  00000+0  12106-2 0  9990
2 46336  53.0447  20.2535 0003297 136.1857 223.9414 15.52477725291086
STARLINK-1750           
1 46337U 20062N   25340.87850378  .00063627  00000+0  10655-2 0  9995
2 46337  53.0475  33.4411 0005966 299.2837  60.7575 15.51270466290885
STARLINK-1752           
1 46338U 20062P   25341.25369091  .00053000  00000+0  10556-2 0  9990
2 46338  53.0513  61.5874 0008443 345.1436  14.9321 15.46373461290516
STARLINK-1759           
1 46340U 20062R   25341.22556293  .00032365  00000+0  94667-3 0  9999
2 46340  53.0324  53.2120 0001727 240.9032 119.1796 15.34998144290627
