[{"OBJECT_NAME":"STARLINK-1633","OBJECT_ID":"2020-057BG","EPOCH":"2025-12-07T06:30:18.321696","MEAN_MOTION":15.38900168,"ECCENTRICITY":0.00107629,"INCLINATION":53.0524,"RA_OF_ASC_NODE":341.5195,"ARG_OF_PERICENTER":27.1405,"MEAN_ANOMALY":333.0159,"EPHEMERIS_TYPE":0,"CLASSIFICATION_TYPE":"U","NORAD_CAT_ID":46171,"ELEMENT_SET_NO":999,"REV_AT_EPOCH":29381,"BSTAR":0.0020911521,"MEAN_MOTION_DOT":0.00082332,"MEAN_MOTION_DDOT":0},{"OBJECT_NAME":"STARLINK-1635","OBJECT_ID":"2020-057BH","EPOCH":"2025-12-07T06:02:51.510048","MEAN_MOTION":15.38893889,"ECCENTRICITY":0.00100271,"INCLINATION":53.0539,"RA_OF_ASC_NODE":341.253,"ARG_OF_PERICENTER":25.6318,"MEAN_ANOMALY":334.518,"EPHEMERIS_TYPE":0,"CLASSIFICATION_TYPE":"U","NORAD_CAT_ID":46172,"ELEMENT_SET_NO":999,"REV_AT_EPOCH":29381,"BSTAR":0.00098448086,"MEAN_MOTION_DOT":0.00038308,"MEAN_MOTION_DDOT":0},{"OBJECT_NAME":"STARLINK-1640","OBJECT_ID":"2020-057BJ","EPOCH":"2025-12-07T01:55:18.075648","MEAN_MOTION":15.06390201,"ECCENTRICITY":7.246e-5,"INCLINATION":53.0554,"RA_OF_ASC_NODE":12.3573,"ARG_OF_PERICENTER":66.472,"MEAN_ANOMALY":293.6345,"EPHEMERIS_TYPE":0,"CLASSIFICATION_TYPE":"U","NORAD_CAT_ID":46173,"ELEMENT_SET_NO":999,"REV_AT_EPOCH":29210,"BSTAR":7.3530628e-5,"MEAN_MOTION_DOT":8.14e-6,"MEAN_MOTION_DDOT":0},{"OBJECT_NAME":"STARLINK-1641","OBJECT_ID":"2020-057BK","EPOCH":"2025-12-07T08:00:03.000384","MEAN_MOTION":15.33991437,"ECCENTRICITY":0.00026252,"INCLINATION":53.0536,"RA_OF_ASC_NODE":3.954,"ARG_OF_PERICENTER":47.6492,"MEAN_ANOMALY":340.8218,"EPHEMERIS_TYPE":0,"CLASSIFICATION_TYPE":"U","NORAD_CAT_ID":46174,"ELEMENT_SET_NO":999,"REV_AT_EPOCH":558,"BSTAR":0.0044358171,"MEAN_MOTION_DOT":0.00150583,"MEAN_MOTION_DDOT":0},{"OBJECT_NAME":"STARLINK-1734","OBJECT_ID":"2020-062A","EPOCH":"2025-12-07T08:00:03.000384","MEAN_MOTION":15.91651011,"ECCENTRICITY":0.00038318,"INCLINATION":53.0161,"RA_OF_ASC_NODE":313.7061,"ARG_OF_PERICENTER":78.3377,"MEAN_ANOMALY":323.9778,"EPHEMERIS_TYPE":0,"CLASSIFICATION_TYPE":"U","NORAD_CAT_ID":46325,"ELEMENT_SET_NO":999,"REV_AT_EPOCH":595,"BSTAR":0.0020309625,"MEAN_MOTION_DOT":0.0067379,"MEAN_MOTION_DDOT":0.0001929015},{"OBJECT_NAME":"STARLINK-1654","OBJECT_ID":"2020-062B","EPOCH":"2025-12-06T15:47:36.921408","MEAN_MOTION":15.43132469,"ECCENTRICITY":0.00062531,"INCLINATION":53.0525,"RA_OF_ASC_NODE":64.2172,"ARG_OF_PERICENTER":337.6855,"MEAN_ANOMALY":22.3877,"EPHEMERIS_TYPE":0,"CLASSIFICATION_TYPE":"U","NORAD_CAT_ID":46326,"ELEMENT_SET_NO":999,"REV_AT_EPOCH":29043,"BSTAR":0.0010508494,"MEAN_MOTION_DOT":0.0004715,"MEAN_MOTION_DDOT":0},{"OBJECT_NAME":"STARLINK-1686","OBJECT_ID":"2020-062D","EPOCH":"2025-12-07T04:35:08.481696","MEAN_MOTION":15.41597585,"ECCENTRICITY":0.00072697,"INCLINATION":53.0523,"RA_OF_ASC_NODE":41.5939,"ARG_OF_PERICENTER":341.1544,"MEAN_ANOMALY":18.919,"EPHEMERIS_TYPE":0,"CLASSIFICATION_TYPE":"U","NORAD_CAT_ID":46328,"ELEMENT_SET_NO":999,"REV_AT_EPOCH":29079,"BSTAR":0.00096902925,"MEAN_MOTION_DOT":0.00041232,"MEAN_MOTION_DDOT":0},{"OBJECT_NAME":"STARLINK-1695","OBJECT_ID":"2020-062E","EPOCH":"2025-12-07T04:45:08.051040","MEAN_MOTION":15.06392184,"ECCENTRICITY":0.00017436,"INCLINATION":53.0543,"RA_OF_ASC_NODE":51.8319,"ARG_OF_PERICENTER":70.1865,"MEAN_ANOMALY":289.9312,"EPHEMERIS_TYPE":0,"CLASSIFICATION_TYPE":"U","NORAD_CAT_ID":46329,"ELEMENT_SET_NO":999,"REV_AT_EPOCH":29064,"BSTAR":0.00020254047,"MEAN_MOTION_DOT":2.736e-5,"MEAN_MOTION_DDOT":0},{"OBJECT_NAME":"STARLINK-1710","OBJECT_ID":"2020-062F","EPOCH":"2025-12-06T19:56:45.520224","MEAN_MOTION":15.53970828,"ECCENTRICITY":0.00027722,"INCLINATION":53.0435,"RA_OF_ASC_NODE":20.7847,"ARG_OF_PERICENTER":302.4476,"MEAN_ANOMALY":57.6266,"EPHEMERIS_TYPE":0,"CLASSIFICATION_TYPE":"U","NORAD_CAT_ID":46330,"ELEMENT_SET_NO":999,"REV_AT_EPOCH":29106,"BSTAR":0.0011637632,"MEAN_MOTION_DOT":0.00076771,"MEAN_MOTION_DDOT":0},{"OBJECT_NAME":"STARLINK-1719","OBJECT_ID":"2020-062G","EPOCH":"2025-12-07T06:50:19.769856","MEAN_MOTION":15.37575327,"ECCENTRICITY":0.00066686,"INCLINATION":53.0528,"RA_OF_ASC_NODE":60.8748,"ARG_OF_PERICENTER":307.9889,"MEAN_ANOMALY":52.0511,"EPHEMERIS_TYPE":0,"CLASSIFICATION_TYPE":"U","NORAD_CAT_ID":46331,"ELEMENT_SET_NO":999,"REV_AT_EPOCH":29053,"BSTAR":0.0012989961,"MEAN_MOTION_DOT":0.00048555,"MEAN_MOTION_DDOT":0},{"OBJECT_NAME":"STARLINK-1723","OBJECT_ID":"2020-062J","EPOCH":"2025-12-07T06:23:45.170592","MEAN_MOTION":15.46973439,"ECCENTRICITY":0.00076843,"INCLINATION":53.0512,"RA_OF_ASC_NODE":61.1549,"ARG_OF_PERICENTER":340.1403,"MEAN_ANOMALY":19.9304,"EPHEMERIS_TYPE":0,"CLASSIFICATION_TYPE":"U","NORAD_CAT_ID":46333,"ELEMENT_SET_NO":999,"REV_AT_EPOCH":29052,"BSTAR":0.0011373879,"MEAN_MOTION_DOT":0.00058368,"MEAN_MOTION_DDOT":0},{"OBJECT_NAME":"STARLINK-1727","OBJECT_ID":"2020-062L","EPOCH":"2025-12-06T22:42:33.239520","MEAN_MOTION":15.41864694,"ECCENTRICITY":0.00073774,"INCLINATION":53.0525,"RA_OF_ASC_NODE":64.5346,"ARG_OF_PERICENTER":342.4187,"MEAN_ANOMALY":17.6561,"EPHEMERIS_TYPE":0,"CLASSIFICATION_TYPE":"U","NORAD_CAT_ID":46335,"ELEMENT_SET_NO":999,"REV_AT_EPOCH":29045,"BSTAR":0.0010534334,"MEAN_MOTION_DOT":0.00045289,"MEAN_MOTION_DDOT":0},{"OBJECT_NAME":"STARLINK-1738","OBJECT_ID":"2020-062M","EPOCH":"2025-12-07T02:48:21.615840","MEAN_MOTION":15.52477725,"ECCENTRICITY":0.0003297,"INCLINATION":53.0447,"RA_OF_ASC_NODE":20.2535,"ARG_OF_PERICENTER":136.1857,"MEAN_ANOMALY":223.9414,"EPHEMERIS_TYPE":0,"CLASSIFICATION_TYPE":"U","NORAD_CAT_ID":46336,"ELEMENT_SET_NO":999,"REV_AT_EPOCH":29108,"BSTAR":0.0012106196,"MEAN_MOTION_DOT":0.00075652,"MEAN_MOTION_DDOT":0},{"OBJECT_NAME":"STARLINK-1750","OBJECT_ID":"2020-062N","EPOCH":"2025-12-06T21:05:02.726592","MEAN_MOTION":15.51270466,"ECCENTRICITY":0.00059666,"INCLINATION":53.0475,"RA_OF_ASC_NODE":33.4411,"ARG_OF_PERICENTER":299.2837,"MEAN_ANOMALY":60.7575,"EPHEMERIS_TYPE":0,"CLASSIFICATION_TYPE":"U","NORAD_CAT_ID":46337,"ELEMENT_SET_NO":999,"REV_AT_EPOCH":29088,"BSTAR":0.001065517,"MEAN_MOTION_DOT":0.00063627,"MEAN_MOTION_DDOT":0},{"OBJECT_NAME":"STARLINK-1752","OBJECT_ID":"2020-062P","EPOCH":"2025-12-07T06:05:18.894624","MEAN_MOTION":15.46373461,"ECCENTRICITY":0.00084433,"INCLINATION":53.0513,"RA_OF_ASC_NODE":61.5874,"ARG_OF_PERICENTER":345.1436,"MEAN_ANOMALY":14.9321,"EPHEMERIS_TYPE":0,"CLASSIFICATION_TYPE":"U","NORAD_CAT_ID":46338,"ELEMENT_SET_NO":999,"REV_AT_EPOCH":29051,"BSTAR":0.0010556493,"MEAN_MOTION_DOT":0.00053,"MEAN_MOTION_DDOT":0},{"OBJECT_NAME":"STARLINK-1759","OBJECT_ID":"2020-062R","EPOCH":"2025-12-07T05:24:48.637152","MEAN_MOTION":15.34998144,"ECCENTRICITY":0.00017278,"INCLINATION":53.0324,"RA_OF_ASC_NODE":53.212,"ARG_OF_PERICENTER":240.9032,"MEAN_ANOMALY":119.1796,"EPHEMERIS_TYPE":0,"CLASSIFICATION_TYPE":"U","NORAD_CAT_ID":46340,"ELEMENT_SET_NO":999,"REV_AT_EPOCH":29062,"BSTAR":0.00094667075,"MEAN_MOTION_DOT":0.00032365,"MEAN_MOTION_DDOT":0}]
